[{"OBJECT_NAME":"STARLINK-3528","OBJECT_ID":"2022-016A","EPOCH":"2026-03-09T22:37:44.894208","MEAN_MOTION":15.08840637,"ECCENTRICITY":0.00012872,"INCLINATION":53.2189,"RA_OF_ASC_NODE":327.9607,"ARG_OF_PERICENTER":95.9714,"MEAN_ANOMALY":264.1425,"EPHEMERIS_TYPE":0,"CLASSIFICATION_TYPE":"U","NORAD_CAT_ID":51714,"ELEMENT_SET_NO":999,"REV_AT_EPOCH":22346,"BSTAR":-3.6292982e-5,"MEAN_MOTION_DOT":-8.65e-6,"MEAN_MOTION_DDOT":0},{"OBJECT_NAME":"PACE","OBJECT_ID":"2014-033N","EPOCH":"2026-03-09T22:47:44.809152","MEAN_MOTION":15.09745465,"ECCENTRICITY":0.00061206,"INCLINATION":98.125,"RA_OF_ASC_NODE":67.7953,"ARG_OF_PERICENTER":179.3374,"MEAN_ANOMALY":180.7863,"EPHEMERIS_TYPE":0,"CLASSIFICATION_TYPE":"U","NORAD_CAT_ID":40022,"ELEMENT_SET_NO":999,"REV_AT_EPOCH":63805,"BSTAR":0.00051174262,"MEAN_MOTION_DOT":8.193e-5,"MEAN_MOTION_DDOT":0}]
